[{"OBJECT_NAME":"STARLINK-30227","OBJECT_ID":"2023-113L","EPOCH":"2026-03-09T05:24:25.568352","MEAN_MOTION":15.18160462,"ECCENTRICITY":0.00027892,"INCLINATION":43.0053,"RA_OF_ASC_NODE":4.8681,"ARG_OF_PERICENTER":225.8359,"MEAN_ANOMALY":134.226,"EPHEMERIS_TYPE":0,"CLASSIFICATION_TYPE":"U","NORAD_CAT_ID":57505,"ELEMENT_SET_NO":999,"REV_AT_EPOCH":14376,"BSTAR":0.0015710865,"MEAN_MOTION_DOT":0.00032605,"MEAN_MOTION_DDOT":0},{"OBJECT_NAME":"ROADS 1","OBJECT_ID":"2025-135H","EPOCH":"2026-03-09T20:30:26.589888","MEAN_MOTION":15.21189252,"ECCENTRICITY":0.00052629,"INCLINATION":97.4546,"RA_OF_ASC_NODE":184.7054,"ARG_OF_PERICENTER":153.667,"MEAN_ANOMALY":206.4834,"EPHEMERIS_TYPE":0,"CLASSIFICATION_TYPE":"U","NORAD_CAT_ID":64535,"ELEMENT_SET_NO":999,"REV_AT_EPOCH":3975,"BSTAR":0.00040940157,"MEAN_MOTION_DOT":9.066e-5,"MEAN_MOTION_DDOT":0}]
